# From NK 1615
P/1996 R2 (Lagerkvist),e,2.5991,40.0473,333.4821,3.772805,0.1344954,0.31430111,301.4077,04/06.0/2025,2000,g 11.5,4.0
# From MPC 75703
P/1998 VS24 (LINEAR),e,5.0291,159.0423,244.8709,4.520866,0.1025349,0.24361003,269.2832,04/06.0/2025,2000,g 13.0,2.0
# From NK 731
P/1999 RO28 (LONEOS),e,7.5669,137.8426,231.3521,3.425298,0.1554736,0.67219722,327.7705,04/06.0/2025,2000,g 20.0,2.0
# From MPC 75704
P/1999 XN120 (Catalina),e,5.0297,285.2438,161.6283,4.181909,0.1152503,0.21141589,330.0541,04/06.0/2025,2000,g 13.5,2.0
# From NK 744
P/2000 R2 (LINEAR),e,11.6788,160.2729,176.5828,3.468908,0.1525509,0.53064688,323.3421,04/06.0/2025,2000,g 18.0,4.0
# From MPC 43019
P/2001 H5 (NEAT),e,8.3718,328.6712,224.5896,6.094648,0.0655060,0.59907068,227.2879,04/06.0/2025,2000,g 12.0,4.0
# From MPEC 2023-UR6
P/2002 EJ57 (LINEAR),e,4.9883,330.2310,167.2739,6.455514,0.0600908,0.59383998,149.1466,04/06.0/2025,2000,g 12.5,4.0
# From MPC 75007
C/2002 VQ94 (LINEAR),e,70.6661,35.1093,99.8061,186.5282,0.0003869,0.96377791,2.7061,04/06.0/2025,2000,g  9.5,2.0
# From MPC 50354
P/2003 F2 (NEAT),e,11.6644,358.9055,192.8286,6.530571,0.0590578,0.54003949,116.2739,04/06.0/2025,2000,g 16.5,2.0
# From MPC182878
P/2003 QX29 (NEAT),e,11.3997,264.4845,37.7499,7.999315,0.0435637,0.47126657,354.6879,04/06.0/2025,2000,g  8.5,4.0
# From MPC105235
P/2003 T12 (SOHO),e,11.0239,174.5769,219.7910,2.584076,0.2372718,0.77019843,65.5487,04/06.0/2025,2000,g 17.0,4.0
# From MPEC 2022-YN2
P/2004 FY140 (LINEAR),e,2.1626,327.2623,254.2044,4.969426,0.0889702,0.19268943,298.8911,04/06.0/2025,2000,g 12.5,2.0
# From MPC 53304
P/2004 R3 (LINEAR-NEAT),e,12.7998,305.1198,37.2788,4.748746,0.0952436,0.25438902,123.6260,04/06.0/2025,2000,g 14.5,4.0
# From MPC 75705
P/2004 V5 (LINEAR-Hill),e,19.3399,47.7420,87.2214,8.037955,0.0432500,0.44842680,323.1271,04/06.0/2025,2000,g  8.0,4.0
# From MPC 75705
P/2004 V5-B (LINEAR-Hill),e,19.3401,47.7424,87.2254,8.038243,0.0432476,0.44844560,323.0871,04/06.0/2025,2000,g  8.0,4.0
# From MPC 54164
P/2005 E1 (Tubbiolo),e,4.2607,335.5015,193.9112,7.069047,0.0524400,0.37720277,29.1548,04/06.0/2025,2000,g 10.0,4.0
# From MPC 79019
P/2005 J1 (McNaught),e,31.7405,268.7999,338.9140,3.574731,0.1458273,0.56932333,345.8980,04/06.0/2025,2000,g 16.5,4.0
# From MPC 74246
P/2005 L1 (McNaught),e,8.3176,128.9407,158.6715,3.944844,0.1257938,0.24665579,152.1722,04/06.0/2025,2000,g  9.5,4.0
# From MPC 75706
P/2005 S2 (Skiff),e,3.1383,161.3359,229.9775,7.985372,0.0436779,0.19855980,299.2621,04/06.0/2025,2000,g  7.5,4.0
# From MPC 73461
P/2005 T3 (Read),e,6.2315,27.6250,7.0551,7.576129,0.0472643,0.17454218,336.3544,04/06.0/2025,2000,g  9.0,4.0
# From MPC 73461
P/2005 T4 (SWAN),e,160.2564,25.8470,41.8121,9.352052,0.0344623,0.93063029,244.9240,04/06.0/2025,2000,g 15.0,4.0
# From MPC 75706
P/2005 T5 (Broughton),e,21.3834,57.0631,304.7768,7.259312,0.0503919,0.55181131,356.4761,04/06.0/2025,2000,g 11.0,4.0
# From MPC 75707
P/2006 HR30 (Siding Spring),e,31.9529,309.7631,117.5053,7.797520,0.0452657,0.84363328,301.9605,04/06.0/2025,2000,g 11.0,4.0
# From MPC 75707
P/2007 C2 (Catalina),e,8.6128,275.2354,180.1343,7.020873,0.0529807,0.47407254,341.4920,04/06.0/2025,2000,g 10.0,4.0
# From MPC 84315
C/2007 D1 (LINEAR),e,41.5122,171.0557,339.7374,1218,0.0000232,0.99282388,0.0000,06/13.5352/2007,2000,g  3.5,4.0
# From MPEC 2024-GJ3
P/2007 K2 (Gibbs),e,7.5982,188.4580,347.1085,7.366515,0.0492959,0.68627632,327.4346,04/06.0/2025,2000,g 14.0,4.0
# From MPC 60925
P/2007 Q2 (Gilmore),e,10.1941,172.2241,162.8553,5.661196,0.0731715,0.66884007,116.5443,04/06.0/2025,2000,g 16.0,4.0
# From MPC 73462
P/2007 S1 (Zhao),e,5.9633,141.3280,245.2714,3.818381,0.1320947,0.33800813,120.5350,04/06.0/2025,2000,g 13.0,4.0
# From MPEC 2024-GJ3
C/2007 S2 (Lemmon),e,16.9145,296.1286,210.1460,12.49517,0.0223147,0.55682847,135.2063,04/06.0/2025,2000,g  6.5,4.0
# From MPC 61994
P/2007 T2 (Kowalski),e,9.7485,3.3921,359.6693,3.043592,0.1856199,0.78548203,93.8256,04/06.0/2025,2000,g 18.5,4.0
# From MPEC 2024-GJ3
C/2008 E1 (Catalina),e,34.8647,188.9341,270.3438,10.76386,0.0279095,0.55286000,169.4495,04/06.0/2025,2000,g  7.0,4.0
# From MPC 64114
P/2008 O3 (Boattini),e,32.3144,47.6078,341.2022,8.208704,0.0419075,0.69623558,257.2277,04/06.0/2025,2000,g 13.0,4.0
# From MPC 75710
P/2008 Y3 (McNaught),e,38.7789,262.8419,238.1142,8.038147,0.0432484,0.44808289,257.3117,04/06.0/2025,2000,g  8.5,4.0
# From MPC 75710
P/2009 B1 (Boattini),e,22.2596,297.1087,128.9969,6.726283,0.0564991,0.63597465,334.5522,04/06.0/2025,2000,g 13.0,4.0
# From MPC 66466
C/2009 G1 (STEREO),e,108.0555,120.8632,175.5144,455.5287,0.0001014,0.99750486,0.0000,04/17.5365/2009,2000,g  9.0,4.0
# From MPC 75710
P/2009 O3 (Hill),e,16.2548,183.7169,154.4308,7.771609,0.0454923,0.68624240,263.5215,04/06.0/2025,2000,g 12.5,4.0
# From MPC 68902
P/2009 Q5 (McNaught),e,40.9561,160.2132,209.2043,7.425697,0.0487078,0.60938877,276.3636,04/06.0/2025,2000,g 10.0,4.0
# From MPC112389
P/2009 T2 (La Sagra),e,27.6018,216.3211,215.9934,7.708575,0.0460514,0.76748585,256.0558,04/06.0/2025,2000,g 14.0,4.0
# From MPC105235
P/2009 WX51 (Catalina),e,9.5976,31.5235,118.2921,3.082368,0.1821282,0.73965801,291.8692,04/06.0/2025,2000,g 19.0,2.0
# From MPC 74247
P/2009 Y2 (Kowalski),e,29.9735,262.0848,172.2332,6.538917,0.0589448,0.63741557,324.3549,04/06.0/2025,2000,g 13.0,4.0
# From MPC 75008
P/2010 C1 (Scotti),e,9.1157,141.5948,2.9346,7.127864,0.0517923,0.26369178,294.4692,04/06.0/2025,2000,g  9.5,4.0
# From MPC 75008
P/2010 D2 (WISE),e,57.1342,319.8758,120.0034,6.717574,0.0566090,0.45172616,313.3312,04/06.0/2025,2000,g 16.0,4.0
# From MPC 75009
P/2010 E2 (Jarnac),e,15.4225,177.8226,8.2157,8.635748,0.0388378,0.72074878,213.5740,04/06.0/2025,2000,g 14.0,4.0
# From MPC 72851
P/2010 H2 (Vales),e,14.2793,64.1882,128.0463,3.833865,0.1312952,0.19768685,3.5932,04/06.0/2025,2000,g  6.0,4.0
# From MPC 70361
P/2010 H3 (SOHO),e,23.1510,77.1867,26.0666,3.035381,0.1863736,0.98557245,0.0000,05/25.2247/2026,2000,g 20.0,2.0
# From MPEC 2024-GJ3
P/2010 H4 (Scotti),e,2.3178,44.7452,179.0802,6.617409,0.0578991,0.26700596,315.0898,04/06.0/2025,2000,g 10.5,4.0
# From MPC 74637
P/2010 H5 (Scotti),e,14.0536,24.5393,174.7891,7.173123,0.0513029,0.15492381,282.7265,04/06.0/2025,2000,g 13.0,2.0
# From MPC 98558
P/2010 J3 (McMillan),e,13.2271,106.5386,157.4270,8.987848,0.0365780,0.72417460,195.8414,04/06.0/2025,2000,g 11.0,4.0
# From MPC 84315
P/2010 JC81 (WISE),e,38.7759,30.8558,12.5011,8.102709,0.0427325,0.77813384,217.2797,04/06.0/2025,2000,g  9.0,4.0
# From MPEC 2024-H77
A/2010 LN135,e,64.4843,184.8385,181.5716,39030,0.0000001,0.99995526,0.0000,05/25.3283/2011,2000,g 14.0,2.0
# From MPC 74248
P/2010 T2 (PANSTARRS),e,7.8633,57.8516,350.3457,5.597145,0.0744311,0.32636756,30.2290,04/06.0/2025,2000,g 11.5,4.0
# From MPC 82316
P/2010 U1 (Boattini),e,8.2275,280.8074,86.5316,6.486887,0.0596554,0.24845234,328.8705,04/06.0/2025,2000,g  9.5,4.0
# From MPEC 2023-J95
C/2010 U3 (Boattini),e,55.5505,42.9916,88.0775,17376,0.0000004,0.99951434,0.0000,02/27.8345/2019,2000,g  1.0,4.0
# From MPC 79021
P/2010 UH55 (Spacewatch),e,8.0367,232.8365,225.2959,6.648639,0.0574917,0.56469859,293.6968,04/06.0/2025,2000,g 11.0,4.0
# From MPC 84021
P/2011 C2 (Gibbs),e,10.8943,11.9592,160.2767,7.409543,0.0488671,0.27097034,238.0458,04/06.0/2025,2000,g  9.0,4.0
# From MPC 79866
P/2011 FR143 (Lemmon),e,15.9632,190.8508,349.6631,6.880900,0.0546055,0.45245107,283.6843,04/06.0/2025,2000,g 14.0,2.0
# From MPC 82317
P/2011 JB15 (Spacewatch-Boattini),e,19.1255,153.5862,110.7210,7.379884,0.0491620,0.31468335,238.4636,04/06.0/2025,2000,g  9.0,4.0
# From MPC 87913
P/2011 N1 (ASH),e,35.7867,77.6291,330.4879,6.234371,0.0633162,0.54548911,296.7545,04/06.0/2025,2000,g 11.5,4.0
# From MPEC 2022-ED3
P/2011 P1 (McNaught),e,5.6524,4.2624,349.1842,7.460988,0.0483626,0.32646068,259.1388,04/06.0/2025,2000,g  9.0,4.0
# From MPEC 2022-HC2
P/2011 S1 (Gibbs),e,2.6886,218.8970,192.9236,8.595130,0.0391134,0.20111886,151.6626,04/06.0/2025,2000,g  8.0,4.0
# From MPEC 2023-UR6
P/2011 V1 (Boattini),e,7.3831,46.4908,269.6156,3.857210,0.1301050,0.54836846,310.2278,04/06.0/2025,2000,g 15.5,4.0
# From MPC 82718
P/2011 W1 (PANSTARRS),e,3.7162,161.8103,283.0139,4.673978,0.0975380,0.28851244,112.3258,04/06.0/2025,2000,g 11.5,4.0
# From MPC 79342
P/2011 Y2 (Boattini),e,6.3915,309.3205,132.0656,6.229195,0.0633952,0.71120631,302.3627,04/06.0/2025,2000,g 15.0,4.0
# From MPEC 2022-K19
P/2012 B1 (PANSTARRS),e,7.6058,36.2107,161.9401,6.541187,0.0589141,0.41005126,254.0709,04/06.0/2025,2000,g  9.0,4.0
# From MPC 78590
P/2012 C3 (PANSTARRS),e,9.0920,135.3677,344.9542,9.748681,0.0323806,0.63011148,359.9758,10/06.0/2011,2000,g 13.0,4.0
# From MPC 84931
P/2012 F2 (PANSTARRS),e,14.6985,226.9578,33.1620,6.347021,0.0616381,0.54041007,271.0209,04/06.0/2025,2000,g 12.0,4.0
# From MPEC 2022-ED3
P/2012 G1 (PANSTARRS),e,12.1680,283.2401,266.0195,4.162699,0.1160490,0.32946639,191.4755,04/06.0/2025,2000,g 15.0,4.0
# From MPC 80898
P/2012 K3 (Gibbs),e,13.1817,125.8064,172.1464,3.632369,0.1423702,0.42167371,293.6647,04/06.0/2025,2000,g 15.0,4.0
# From MPC 88326
P/2012 NJ (La Sagra),e,84.3340,315.6901,338.3899,8.467585,0.0400004,0.84647445,187.2014,04/06.0/2025,2000,g 14.5,4.0
# From MPC 81470
P/2012 O1 (McNaught),e,7.4280,91.9402,238.2820,3.543170,0.1477802,0.59356689,329.0967,04/06.0/2025,2000,g 17.5,4.0
# From MPC 80899
P/2012 O2 (McNaught),e,24.4556,120.6622,183.4157,3.629793,0.1425218,0.53121969,308.6166,04/06.0/2025,2000,g 17.0,4.0
# From MPC 82320
P/2012 T2 (PANSTARRS),e,12.5701,73.8780,311.1679,5.717811,0.0720874,0.16214711,312.7876,04/06.0/2025,2000,g 10.0,4.0
# From MPC 80900
P/2012 T3 (PANSTARRS),e,9.5538,114.3266,195.4739,6.157889,0.0644995,0.61560078,304.7912,04/06.0/2025,2000,g 15.0,4.0
# From MPC 82720
P/2012 U2 (PANSTARRS),e,10.7586,185.2794,228.4334,7.125879,0.0518139,0.50052876,233.8570,04/06.0/2025,2000,g 12.5,4.0
# From MPC 82721
P/2013 AL76 (Catalina),e,144.9113,146.0870,27.1086,6.500694,0.0594654,0.68554077,268.1851,04/06.0/2025,2000,g 16.0,4.0
# From MPC 91612
